LEMUR-2-ANDIS           
1 42838U 17042P   26068.55941107  .00023598  00000+0  79875-3 0  9998
2 42838  97.3659 249.7950 0009101   4.3248 355.8070 15.30557934473198
STARLINK-35633          
1 66162U 25240S   26068.25716431  .00013266  00000+0  45942-3 0  9999
2 66162  53.1605  64.7039 0001484 115.4098 244.7056 15.30186772 21929
